CCSDS_OMM_VERS = 2.0
CREATION_DATE  = 
ORIGINATOR     = 

OBJECT_NAME    = SOYUZ-MS 28
OBJECT_ID      = 2025-275A
CENTER_NAME    = EARTH
REF_FRAME      = TEME
TIME_SYSTEM    = UTC
MEAN_ELEMENT_THEORY = SGP/SGP4

EPOCH          = 2026-01-08T12:00:03.881088
MEAN_MOTION    = 15.49175445
ECCENTRICITY   = .0007637
INCLINATION    = 51.6332
RA_OF_ASC_NODE = 9.9851
ARG_OF_PERICENTER = 355.2000
MEAN_ANOMALY   = 4.8914

EPHEMERIS_TYPE = 0
CLASSIFICATION_TYPE = U
NORAD_CAT_ID   = 66664
ELEMENT_SET_NO = 999
REV_AT_EPOCH   = 128
BSTAR          = .18407097E-3
MEAN_MOTION_DOT = .9772E-4
MEAN_MOTION_DDOT = 0

CCSDS_OMM_VERS = 2.0
CREATION_DATE  = 
ORIGINATOR     = 

OBJECT_NAME    = 1998-067XS
OBJECT_ID      = 1998-067XS
CENTER_NAME    = EARTH
REF_FRAME      = TEME
TIME_SYSTEM    = UTC
MEAN_ELEMENT_THEORY = SGP/SGP4

EPOCH          = 2026-01-08T09:33:36.886176
MEAN_MOTION    = 15.52163170
ECCENTRICITY   = .00023787
INCLINATION    = 51.6320
RA_OF_ASC_NODE = 10.0577
ARG_OF_PERICENTER = 343.3805
MEAN_ANOMALY   = 16.7107

EPHEMERIS_TYPE = 0
CLASSIFICATION_TYPE = U
NORAD_CAT_ID   = 66906
ELEMENT_SET_NO = 999
REV_AT_EPOCH   = 575
BSTAR          = .5187311E-3
MEAN_MOTION_DOT = .3164E-3
MEAN_MOTION_DDOT = 0

CCSDS_OMM_VERS = 2.0
CREATION_DATE  = 
ORIGINATOR     = 

OBJECT_NAME    = 1998-067XT
OBJECT_ID      = 1998-067XT
CENTER_NAME    = EARTH
REF_FRAME      = TEME
TIME_SYSTEM    = UTC
MEAN_ELEMENT_THEORY = SGP/SGP4

EPOCH          = 2026-01-08T07:09:07.418592
MEAN_MOTION    = 15.55450029
ECCENTRICITY   = .0003783
INCLINATION    = 51.6314
RA_OF_ASC_NODE = 10.1378
ARG_OF_PERICENTER = 28.5335
MEAN_ANOMALY   = 331.5862

EPHEMERIS_TYPE = 0
CLASSIFICATION_TYPE = U
NORAD_CAT_ID   = 66907
ELEMENT_SET_NO = 999
REV_AT_EPOCH   = 574
BSTAR          = .12427E-2
MEAN_MOTION_DOT = .86828E-3
MEAN_MOTION_DDOT = 0

CCSDS_OMM_VERS = 2.0
CREATION_DATE  = 
ORIGINATOR     = 

OBJECT_NAME    = 1998-067XU
OBJECT_ID      = 1998-067XU
CENTER_NAME    = EARTH
REF_FRAME      = TEME
TIME_SYSTEM    = UTC
MEAN_ELEMENT_THEORY = SGP/SGP4

EPOCH          = 2026-01-08T05:35:06.698688
MEAN_MOTION    = 15.55427969
ECCENTRICITY   = .0003743
INCLINATION    = 51.6306
RA_OF_ASC_NODE = 10.4506
ARG_OF_PERICENTER = 23.8255
MEAN_ANOMALY   = 336.2909

EPHEMERIS_TYPE = 0
CLASSIFICATION_TYPE = U
NORAD_CAT_ID   = 66908
ELEMENT_SET_NO = 999
REV_AT_EPOCH   = 573
BSTAR          = .12155E-2
MEAN_MOTION_DOT = .8482E-3
MEAN_MOTION_DDOT = 0

CCSDS_OMM_VERS = 2.0
CREATION_DATE  = 
ORIGINATOR     = 

OBJECT_NAME    = SILVERSAT
OBJECT_ID      = 1998-067XV
CENTER_NAME    = EARTH
REF_FRAME      = TEME
TIME_SYSTEM    = UTC
MEAN_ELEMENT_THEORY = SGP/SGP4

EPOCH          = 2026-01-08T10:04:20.428896
MEAN_MOTION    = 15.56054415
ECCENTRICITY   = .00038906
INCLINATION    = 51.6311
RA_OF_ASC_NODE = 9.4496
ARG_OF_PERICENTER = 34.0786
MEAN_ANOMALY   = 326.0455

EPHEMERIS_TYPE = 0
CLASSIFICATION_TYPE = U
NORAD_CAT_ID   = 66909
ELEMENT_SET_NO = 999
REV_AT_EPOCH   = 576
BSTAR          = .13757632E-2
MEAN_MOTION_DOT = .98499E-3
MEAN_MOTION_DDOT = 0

CCSDS_OMM_VERS = 2.0
CREATION_DATE  = 
ORIGINATOR     = 

OBJECT_NAME    = 1998-067XW
OBJECT_ID      = 1998-067XW
CENTER_NAME    = EARTH
REF_FRAME      = TEME
TIME_SYSTEM    = UTC
MEAN_ELEMENT_THEORY = SGP/SGP4

EPOCH          = 2026-01-08T10:04:30.701856
MEAN_MOTION    = 15.55759608
ECCENTRICITY   = .00028317
INCLINATION    = 51.6298
RA_OF_ASC_NODE = 9.4491
ARG_OF_PERICENTER = 7.5526
MEAN_ANOMALY   = 352.5507

EPHEMERIS_TYPE = 0
CLASSIFICATION_TYPE = U
NORAD_CAT_ID   = 66910
ELEMENT_SET_NO = 999
REV_AT_EPOCH   = 576
BSTAR          = .1296831E-2
MEAN_MOTION_DOT = .9172E-3
MEAN_MOTION_DDOT = 0

CCSDS_OMM_VERS = 2.0
CREATION_DATE  = 
ORIGINATOR     = 

OBJECT_NAME    = 1998-067XX
OBJECT_ID      = 1998-067XX
CENTER_NAME    = EARTH
REF_FRAME      = TEME
TIME_SYSTEM    = UTC
MEAN_ELEMENT_THEORY = SGP/SGP4

EPOCH          = 2026-01-08T06:44:01.330944
MEAN_MOTION    = 15.56701040
ECCENTRICITY   = .0002889
INCLINATION    = 51.6304
RA_OF_ASC_NODE = 10.0198
ARG_OF_PERICENTER = 22.2938
MEAN_ANOMALY   = 337.8179

EPHEMERIS_TYPE = 0
CLASSIFICATION_TYPE = U
NORAD_CAT_ID   = 66911
ELEMENT_SET_NO = 999
REV_AT_EPOCH   = 573
BSTAR          = .143E-2
MEAN_MOTION_DOT = .10497E-2
MEAN_MOTION_DDOT = 0

CCSDS_OMM_VERS = 2.0
CREATION_DATE  = 
ORIGINATOR     = 

OBJECT_NAME    = 1998-067XY
OBJECT_ID      = 1998-067XY
CENTER_NAME    = EARTH
REF_FRAME      = TEME
TIME_SYSTEM    = UTC
MEAN_ELEMENT_THEORY = SGP/SGP4

EPOCH          = 2026-01-08T16:43:31.656288
MEAN_MOTION    = 15.54289718
ECCENTRICITY   = .0003647
INCLINATION    = 51.6311
RA_OF_ASC_NODE = 8.3012
ARG_OF_PERICENTER = 15.0558
MEAN_ANOMALY   = 345.0541

EPHEMERIS_TYPE = 0
CLASSIFICATION_TYPE = U
NORAD_CAT_ID   = 66912
ELEMENT_SET_NO = 999
REV_AT_EPOCH   = 579
BSTAR          = .98925E-3
MEAN_MOTION_DOT = .65951E-3
MEAN_MOTION_DDOT = 0

